{"fetched_at":"2026-07-07T18:29:08.171Z","source":"https://celestrak.org/NORAD/elements/gp.php?GROUP=planet&FORMAT=JSON","constellation":"skysat","records":[{"OBJECT_NAME":"SKYSAT-A","OBJECT_ID":"2013-066C","EPOCH":"2026-07-07T02:20:44.073312","CLASSIFICATION_TYPE":"U","MEAN_MOTION":15.13085318,"ECCENTRICITY":0.0019883,"INCLINATION":97.3802,"RA_OF_ASC_NODE":236.8604,"ARG_OF_PERICENTER":243.0841,"MEAN_ANOMALY":116.8359,"EPHEMERIS_TYPE":0,"NORAD_CAT_ID":39418,"ELEMENT_SET_NO":999,"REV_AT_EPOCH":69149,"BSTAR":0.00014268,"MEAN_MOTION_DOT":0.00002472,"MEAN_MOTION_DDOT":0},{"OBJECT_NAME":"SKYSAT-B","OBJECT_ID":"2014-037D","EPOCH":"2026-07-07T08:45:51.316128","CLASSIFICATION_TYPE":"U","MEAN_MOTION":14.88079196,"ECCENTRICITY":0.0004922,"INCLINATION":98.3848,"RA_OF_ASC_NODE":148.482,"ARG_OF_PERICENTER":199.098,"MEAN_ANOMALY":161.0051,"EPHEMERIS_TYPE":0,"NORAD_CAT_ID":40072,"ELEMENT_SET_NO":999,"REV_AT_EPOCH":64896,"BSTAR":0.00012886,"MEAN_MOTION_DOT":0.00001123,"MEAN_MOTION_DDOT":0},{"OBJECT_NAME":"SKYSAT-C1","OBJECT_ID":"2016-040C","EPOCH":"2026-07-06T14:58:56.636832","CLASSIFICATION_TYPE":"U","MEAN_MOTION":15.36647042,"ECCENTRICITY":0.0001234,"INCLINATION":96.9556,"RA_OF_ASC_NODE":218.2931,"ARG_OF_PERICENTER":14.293,"MEAN_ANOMALY":345.835,"EPHEMERIS_TYPE":0,"NORAD_CAT_ID":41601,"ELEMENT_SET_NO":999,"REV_AT_EPOCH":56085,"BSTAR":0.0002164,"MEAN_MOTION_DOT":0.00007669,"MEAN_MOTION_DDOT":0},{"OBJECT_NAME":"SKYSAT-C4","OBJECT_ID":"2016-058B","EPOCH":"2026-07-07T11:43:48.731808","CLASSIFICATION_TYPE":"U","MEAN_MOTION":15.4925468,"ECCENTRICITY":0.0003163,"INCLINATION":96.9169,"RA_OF_ASC_NODE":209.418,"ARG_OF_PERICENTER":130.0488,"MEAN_ANOMALY":230.1042,"EPHEMERIS_TYPE":0,"NORAD_CAT_ID":41771,"ELEMENT_SET_NO":999,"REV_AT_EPOCH":54861,"BSTAR":0.00022367,"MEAN_MOTION_DOT":0.0001213,"MEAN_MOTION_DDOT":0},{"OBJECT_NAME":"SKYSAT-C5","OBJECT_ID":"2016-058C","EPOCH":"2026-07-06T22:14:09.709728","CLASSIFICATION_TYPE":"U","MEAN_MOTION":15.34766054,"ECCENTRICITY":0.0002457,"INCLINATION":97.0459,"RA_OF_ASC_NODE":227.6879,"ARG_OF_PERICENTER":176.3166,"MEAN_ANOMALY":183.8096,"EPHEMERIS_TYPE":0,"NORAD_CAT_ID":41772,"ELEMENT_SET_NO":999,"REV_AT_EPOCH":54677,"BSTAR":0.00018242,"MEAN_MOTION_DOT":0.00006073,"MEAN_MOTION_DDOT":0},{"OBJECT_NAME":"SKYSAT-C2","OBJECT_ID":"2016-058D","EPOCH":"2026-07-06T14:15:23.124096","CLASSIFICATION_TYPE":"U","MEAN_MOTION":15.4253765,"ECCENTRICITY":0.000256,"INCLINATION":97.0163,"RA_OF_ASC_NODE":208.9626,"ARG_OF_PERICENTER":24.307,"MEAN_ANOMALY":335.8299,"EPHEMERIS_TYPE":0,"NORAD_CAT_ID":41773,"ELEMENT_SET_NO":999,"REV_AT_EPOCH":54804,"BSTAR":0.0002435,"MEAN_MOTION_DOT":0.00010488,"MEAN_MOTION_DDOT":0},{"OBJECT_NAME":"SKYSAT-C3","OBJECT_ID":"2016-058E","EPOCH":"2026-07-07T10:34:27.408864","CLASSIFICATION_TYPE":"U","MEAN_MOTION":15.53450138,"ECCENTRICITY":0.0002001,"INCLINATION":96.9001,"RA_OF_ASC_NODE":218.5177,"ARG_OF_PERICENTER":135.7039,"MEAN_ANOMALY":224.4376,"EPHEMERIS_TYPE":0,"NORAD_CAT_ID":41774,"ELEMENT_SET_NO":999,"REV_AT_EPOCH":54925,"BSTAR":0.00027706,"MEAN_MOTION_DOT":0.00017481,"MEAN_MOTION_DDOT":0},{"OBJECT_NAME":"SKYSAT-C11","OBJECT_ID":"2017-068A","EPOCH":"2026-07-06T23:06:10.068192","CLASSIFICATION_TYPE":"U","MEAN_MOTION":15.58985087,"ECCENTRICITY":0.0000652,"INCLINATION":97.4374,"RA_OF_ASC_NODE":337.6719,"ARG_OF_PERICENTER":158.6283,"MEAN_ANOMALY":201.5,"EPHEMERIS_TYPE":0,"NORAD_CAT_ID":42987,"ELEMENT_SET_NO":999,"REV_AT_EPOCH":48632,"BSTAR":0.0003051,"MEAN_MOTION_DOT":0.00023637,"MEAN_MOTION_DDOT":0},{"OBJECT_NAME":"SKYSAT-C10","OBJECT_ID":"2017-068B","EPOCH":"2026-07-06T22:00:01.585728","CLASSIFICATION_TYPE":"U","MEAN_MOTION":15.35000808,"ECCENTRICITY":0.0001286,"INCLINATION":97.4529,"RA_OF_ASC_NODE":324.963,"ARG_OF_PERICENTER":108.8962,"MEAN_ANOMALY":251.2421,"EPHEMERIS_TYPE":0,"NORAD_CAT_ID":42988,"ELEMENT_SET_NO":999,"REV_AT_EPOCH":48538,"BSTAR":0.00025039,"MEAN_MOTION_DOT":0.00008421,"MEAN_MOTION_DDOT":0},{"OBJECT_NAME":"SKYSAT-C9","OBJECT_ID":"2017-068C","EPOCH":"2026-07-07T08:35:59.293824","CLASSIFICATION_TYPE":"U","MEAN_MOTION":15.42079854,"ECCENTRICITY":0.0009188,"INCLINATION":97.4448,"RA_OF_ASC_NODE":326.5388,"ARG_OF_PERICENTER":69.8221,"MEAN_ANOMALY":290.4013,"EPHEMERIS_TYPE":0,"NORAD_CAT_ID":42989,"ELEMENT_SET_NO":999,"REV_AT_EPOCH":48586,"BSTAR":0.00021994,"MEAN_MOTION_DOT":0.00009325,"MEAN_MOTION_DDOT":0},{"OBJECT_NAME":"SKYSAT-C8","OBJECT_ID":"2017-068D","EPOCH":"2026-07-06T22:08:53.759616","CLASSIFICATION_TYPE":"U","MEAN_MOTION":15.37378325,"ECCENTRICITY":0.000119,"INCLINATION":97.4547,"RA_OF_ASC_NODE":324.8452,"ARG_OF_PERICENTER":97.221,"MEAN_ANOMALY":262.917,"EPHEMERIS_TYPE":0,"NORAD_CAT_ID":42990,"ELEMENT_SET_NO":999,"REV_AT_EPOCH":48534,"BSTAR":0.00022874,"MEAN_MOTION_DOT":0.00008297,"MEAN_MOTION_DDOT":0},{"OBJECT_NAME":"SKYSAT-C7","OBJECT_ID":"2017-068E","EPOCH":"2026-07-07T04:15:30.087648","CLASSIFICATION_TYPE":"U","MEAN_MOTION":15.37334035,"ECCENTRICITY":0.0006415,"INCLINATION":97.4556,"RA_OF_ASC_NODE":326.0941,"ARG_OF_PERICENTER":47.3462,"MEAN_ANOMALY":312.8322,"EPHEMERIS_TYPE":0,"NORAD_CAT_ID":42991,"ELEMENT_SET_NO":999,"REV_AT_EPOCH":48544,"BSTAR":0.00020626,"MEAN_MOTION_DOT":0.00007466,"MEAN_MOTION_DDOT":0},{"OBJECT_NAME":"SKYSAT-C6","OBJECT_ID":"2017-068F","EPOCH":"2026-07-06T21:49:25.667904","CLASSIFICATION_TYPE":"U","MEAN_MOTION":15.34062756,"ECCENTRICITY":0.0005364,"INCLINATION":97.4672,"RA_OF_ASC_NODE":325.7029,"ARG_OF_PERICENTER":104.5619,"MEAN_ANOMALY":255.6218,"EPHEMERIS_TYPE":0,"NORAD_CAT_ID":42992,"ELEMENT_SET_NO":999,"REV_AT_EPOCH":48534,"BSTAR":0.00020626,"MEAN_MOTION_DOT":0.00006719,"MEAN_MOTION_DDOT":0},{"OBJECT_NAME":"SKYSAT-C12","OBJECT_ID":"2018-099AR","EPOCH":"2026-07-06T20:37:48.497376","CLASSIFICATION_TYPE":"U","MEAN_MOTION":15.49578889,"ECCENTRICITY":0.0005886,"INCLINATION":96.9257,"RA_OF_ASC_NODE":210.312,"ARG_OF_PERICENTER":89.2485,"MEAN_ANOMALY":270.9442,"EPHEMERIS_TYPE":0,"NORAD_CAT_ID":43797,"ELEMENT_SET_NO":999,"REV_AT_EPOCH":42490,"BSTAR":0.00026105,"MEAN_MOTION_DOT":0.00014343,"MEAN_MOTION_DDOT":0}]}
